GUOWANG GROUP 20 OBJECT*
1 68131U 26047C   26085.61156641 -.00000109  00000+0  28123-4 0  9999
2 68131  50.0022   1.5779 0000880 230.1595 129.9229 13.97482251  1940
GUOWANG GROUP 20 OBJECT*
1 68132U 26047D   26083.82212781 -.00000102  00000+0  32409-4 0  9994
2 68132  50.0048   8.7665 0002416   7.3102 352.7836 14.00513037  1680
GUOWANG GROUP 20 OBJECT*
1 68133U 26047E   26083.32146819 -.00000126  00000+0  15966-4 0  9993
2 68133  49.9979  10.8404 0003230 188.5214 171.5635 14.01339008  1620
GUOWANG GROUP 20 OBJECT*
1 68134U 26047F   26083.10517479 -.00000032  00000+0  77668-4 0  9997
2 68134  50.0123  11.6502 0000475 222.9253 137.1614 14.01903676  1585
GUOWANG GROUP 20 OBJECT*
1 68135U 26047G   26085.74432800  .00000018  00000+0  11069-3 0  9999
2 68135  50.0409   0.8903 0004806 213.0056 147.0548 14.01583953  1962
GUOWANG GROUP 20 OBJECT*
1 68136U 26047H   26082.89133300 -.00000102  00000+0  31573-4 0  9994
2 68136  50.0075  12.5331 0001735 306.0179  54.0564 14.02326786  1554
GUOWANG GROUP 20 OBJECT*
1 68137U 26047J   26082.88983446 -.00000137  00000+0  91454-5 0  9991
2 68137  50.0081  12.5219 0000175 124.6965 235.3956 14.02259904  1568
CZ-8A R/B               
1 68138U 26047K   26085.95251941 -.00000038  00000+0  62247-4 0  9998
2 68138  49.9540 359.2892 0044762 197.6247 162.3109 14.12231703  1991
SHIYAN-30 03            
1 68139U 26048A   26085.97311723  .00002551  00000+0  25132-3 0  9999
2 68139  35.0010  40.4772 0003419 343.3524  16.7068 14.91712668  2086
SHIYAN-30 04            
1 68140U 26048B   26085.97383960  .00002444  00000+0  24090-3 0  9996
2 68140  34.9925  40.4801 0001933 339.8596  20.2032 14.91721773  2080
CZ-2D R/B               
1 68141U 26048C   26086.00699669  .00001632  00000+0  14685-3 0  9995
2 68141  35.1304  40.1085 0014968 117.8294 242.3933 14.95554786  2097
STARLINK-36604          
1 68142U 26049A   26085.91668981  .00099915  00000+0  51728-3 0  9999
2 68142  97.2843 105.9940 0001018 104.2266  82.5673 15.80779409  3403
