CCSDS_OMM_VERS = 2.0
CREATION_DATE  = 
ORIGINATOR     = 

OBJECT_NAME    = GUOWANG GROUP 20 OBJECT C
OBJECT_ID      = 2026-047C
CENTER_NAME    = EARTH
REF_FRAME      = TEME
TIME_SYSTEM    = UTC
MEAN_ELEMENT_THEORY = SGP/SGP4

EPOCH          = 2026-03-26T14:40:39.337824
MEAN_MOTION    = 13.97482251
ECCENTRICITY   = .00008809
INCLINATION    = 50.0022
RA_OF_ASC_NODE = 1.5779
ARG_OF_PERICENTER = 230.1595
MEAN_ANOMALY   = 129.9229

EPHEMERIS_TYPE = 0
CLASSIFICATION_TYPE = U
NORAD_CAT_ID   = 68131
ELEMENT_SET_NO = 999
REV_AT_EPOCH   = 194
BSTAR          = .28123307E-4
MEAN_MOTION_DOT = -.109E-5
MEAN_MOTION_DDOT = 0

CCSDS_OMM_VERS = 2.0
CREATION_DATE  = 
ORIGINATOR     = 

OBJECT_NAME    = GUOWANG GROUP 20 OBJECT D
OBJECT_ID      = 2026-047D
CENTER_NAME    = EARTH
REF_FRAME      = TEME
TIME_SYSTEM    = UTC
MEAN_ELEMENT_THEORY = SGP/SGP4

EPOCH          = 2026-03-24T19:43:51.842784
MEAN_MOTION    = 14.00513037
ECCENTRICITY   = .00024162
INCLINATION    = 50.0048
RA_OF_ASC_NODE = 8.7665
ARG_OF_PERICENTER = 7.3102
MEAN_ANOMALY   = 352.7836

EPHEMERIS_TYPE = 0
CLASSIFICATION_TYPE = U
NORAD_CAT_ID   = 68132
ELEMENT_SET_NO = 999
REV_AT_EPOCH   = 168
BSTAR          = .32408862E-4
MEAN_MOTION_DOT = -.102E-5
MEAN_MOTION_DDOT = 0

CCSDS_OMM_VERS = 2.0
CREATION_DATE  = 
ORIGINATOR     = 

OBJECT_NAME    = GUOWANG GROUP 20 OBJECT E
OBJECT_ID      = 2026-047E
CENTER_NAME    = EARTH
REF_FRAME      = TEME
TIME_SYSTEM    = UTC
MEAN_ELEMENT_THEORY = SGP/SGP4

EPOCH          = 2026-03-24T07:42:54.851616
MEAN_MOTION    = 14.01339008
ECCENTRICITY   = .00032302
INCLINATION    = 49.9979
RA_OF_ASC_NODE = 10.8404
ARG_OF_PERICENTER = 188.5214
MEAN_ANOMALY   = 171.5635

EPHEMERIS_TYPE = 0
CLASSIFICATION_TYPE = U
NORAD_CAT_ID   = 68133
ELEMENT_SET_NO = 999
REV_AT_EPOCH   = 162
BSTAR          = .15966081E-4
MEAN_MOTION_DOT = -.126E-5
MEAN_MOTION_DDOT = 0

CCSDS_OMM_VERS = 2.0
CREATION_DATE  = 
ORIGINATOR     = 

OBJECT_NAME    = GUOWANG GROUP 20 OBJECT F
OBJECT_ID      = 2026-047F
CENTER_NAME    = EARTH
REF_FRAME      = TEME
TIME_SYSTEM    = UTC
MEAN_ELEMENT_THEORY = SGP/SGP4

EPOCH          = 2026-03-24T02:31:27.101856
MEAN_MOTION    = 14.01903676
ECCENTRICITY   = .00004752
INCLINATION    = 50.0123
RA_OF_ASC_NODE = 11.6502
ARG_OF_PERICENTER = 222.9253
MEAN_ANOMALY   = 137.1614

EPHEMERIS_TYPE = 0
CLASSIFICATION_TYPE = U
NORAD_CAT_ID   = 68134
ELEMENT_SET_NO = 999
REV_AT_EPOCH   = 158
BSTAR          = .77668349E-4
MEAN_MOTION_DOT = -.32E-6
MEAN_MOTION_DDOT = 0

CCSDS_OMM_VERS = 2.0
CREATION_DATE  = 
ORIGINATOR     = 

OBJECT_NAME    = GUOWANG GROUP 20 OBJECT G
OBJECT_ID      = 2026-047G
CENTER_NAME    = EARTH
REF_FRAME      = TEME
TIME_SYSTEM    = UTC
MEAN_ELEMENT_THEORY = SGP/SGP4

EPOCH          = 2026-03-26T17:51:49.939200
MEAN_MOTION    = 14.01583953
ECCENTRICITY   = .00048065
INCLINATION    = 50.0409
RA_OF_ASC_NODE = 0.8903
ARG_OF_PERICENTER = 213.0056
MEAN_ANOMALY   = 147.0548

EPHEMERIS_TYPE = 0
CLASSIFICATION_TYPE = U
NORAD_CAT_ID   = 68135
ELEMENT_SET_NO = 999
REV_AT_EPOCH   = 196
BSTAR          = .11069373E-3
MEAN_MOTION_DOT = .18E-6
MEAN_MOTION_DDOT = 0

CCSDS_OMM_VERS = 2.0
CREATION_DATE  = 
ORIGINATOR     = 

OBJECT_NAME    = GUOWANG GROUP 20 OBJECT H
OBJECT_ID      = 2026-047H
CENTER_NAME    = EARTH
REF_FRAME      = TEME
TIME_SYSTEM    = UTC
MEAN_ELEMENT_THEORY = SGP/SGP4

EPOCH          = 2026-03-23T21:23:31.171200
MEAN_MOTION    = 14.02326786
ECCENTRICITY   = .0001735
INCLINATION    = 50.0075
RA_OF_ASC_NODE = 12.5331
ARG_OF_PERICENTER = 306.0179
MEAN_ANOMALY   = 54.0564

EPHEMERIS_TYPE = 0
CLASSIFICATION_TYPE = U
NORAD_CAT_ID   = 68136
ELEMENT_SET_NO = 999
REV_AT_EPOCH   = 155
BSTAR          = .31573E-4
MEAN_MOTION_DOT = -.102E-5
MEAN_MOTION_DDOT = 0

CCSDS_OMM_VERS = 2.0
CREATION_DATE  = 
ORIGINATOR     = 

OBJECT_NAME    = GUOWANG GROUP 20 OBJECT J
OBJECT_ID      = 2026-047J
CENTER_NAME    = EARTH
REF_FRAME      = TEME
TIME_SYSTEM    = UTC
MEAN_ELEMENT_THEORY = SGP/SGP4

EPOCH          = 2026-03-23T21:21:21.697344
MEAN_MOTION    = 14.02259904
ECCENTRICITY   = .0000175
INCLINATION    = 50.0081
RA_OF_ASC_NODE = 12.5219
ARG_OF_PERICENTER = 124.6965
MEAN_ANOMALY   = 235.3956

EPHEMERIS_TYPE = 0
CLASSIFICATION_TYPE = U
NORAD_CAT_ID   = 68137
ELEMENT_SET_NO = 999
REV_AT_EPOCH   = 156
BSTAR          = .91454E-5
MEAN_MOTION_DOT = -.137E-5
MEAN_MOTION_DDOT = 0

CCSDS_OMM_VERS = 2.0
CREATION_DATE  = 
ORIGINATOR     = 

OBJECT_NAME    = CZ-8A R/B
OBJECT_ID      = 2026-047K
CENTER_NAME    = EARTH
REF_FRAME      = TEME
TIME_SYSTEM    = UTC
MEAN_ELEMENT_THEORY = SGP/SGP4

EPOCH          = 2026-03-26T22:51:37.677024
MEAN_MOTION    = 14.12231703
ECCENTRICITY   = .00447629
INCLINATION    = 49.9540
RA_OF_ASC_NODE = 359.2892
ARG_OF_PERICENTER = 197.6247
MEAN_ANOMALY   = 162.3109

EPHEMERIS_TYPE = 0
CLASSIFICATION_TYPE = U
NORAD_CAT_ID   = 68138
ELEMENT_SET_NO = 999
REV_AT_EPOCH   = 199
BSTAR          = .62246726E-4
MEAN_MOTION_DOT = -.38E-6
MEAN_MOTION_DDOT = 0

CCSDS_OMM_VERS = 2.0
CREATION_DATE  = 
ORIGINATOR     = 

OBJECT_NAME    = SHIYAN-30 03
OBJECT_ID      = 2026-048A
CENTER_NAME    = EARTH
REF_FRAME      = TEME
TIME_SYSTEM    = UTC
MEAN_ELEMENT_THEORY = SGP/SGP4

EPOCH          = 2026-03-26T23:21:17.328672
MEAN_MOTION    = 14.91712668
ECCENTRICITY   = .00034193
INCLINATION    = 35.0010
RA_OF_ASC_NODE = 40.4772
ARG_OF_PERICENTER = 343.3524
MEAN_ANOMALY   = 16.7068

EPHEMERIS_TYPE = 0
CLASSIFICATION_TYPE = U
NORAD_CAT_ID   = 68139
ELEMENT_SET_NO = 999
REV_AT_EPOCH   = 208
BSTAR          = .25131765E-3
MEAN_MOTION_DOT = .2551E-4
MEAN_MOTION_DDOT = 0

CCSDS_OMM_VERS = 2.0
CREATION_DATE  = 
ORIGINATOR     = 

OBJECT_NAME    = SHIYAN-30 04
OBJECT_ID      = 2026-048B
CENTER_NAME    = EARTH
REF_FRAME      = TEME
TIME_SYSTEM    = UTC
MEAN_ELEMENT_THEORY = SGP/SGP4

EPOCH          = 2026-03-26T23:22:19.741440
MEAN_MOTION    = 14.91721773
ECCENTRICITY   = .00019338
INCLINATION    = 34.9925
RA_OF_ASC_NODE = 40.4801
ARG_OF_PERICENTER = 339.8596
MEAN_ANOMALY   = 20.2032

EPHEMERIS_TYPE = 0
CLASSIFICATION_TYPE = U
NORAD_CAT_ID   = 68140
ELEMENT_SET_NO = 999
REV_AT_EPOCH   = 208
BSTAR          = .24089864E-3
MEAN_MOTION_DOT = .2444E-4
MEAN_MOTION_DDOT = 0

CCSDS_OMM_VERS = 2.0
CREATION_DATE  = 
ORIGINATOR     = 

OBJECT_NAME    = CZ-2D R/B
OBJECT_ID      = 2026-048C
CENTER_NAME    = EARTH
REF_FRAME      = TEME
TIME_SYSTEM    = UTC
MEAN_ELEMENT_THEORY = SGP/SGP4

EPOCH          = 2026-03-27T00:10:04.514016
MEAN_MOTION    = 14.95554786
ECCENTRICITY   = .00149685
INCLINATION    = 35.1304
RA_OF_ASC_NODE = 40.1085
ARG_OF_PERICENTER = 117.8294
MEAN_ANOMALY   = 242.3933

EPHEMERIS_TYPE = 0
CLASSIFICATION_TYPE = U
NORAD_CAT_ID   = 68141
ELEMENT_SET_NO = 999
REV_AT_EPOCH   = 209
BSTAR          = .14685081E-3
MEAN_MOTION_DOT = .1632E-4
MEAN_MOTION_DDOT = 0

CCSDS_OMM_VERS = 2.0
CREATION_DATE  = 
ORIGINATOR     = 

OBJECT_NAME    = STARLINK-36604
OBJECT_ID      = 2026-049A
CENTER_NAME    = EARTH
REF_FRAME      = TEME
TIME_SYSTEM    = UTC
MEAN_ELEMENT_THEORY = SGP/SGP4

EPOCH          = 2026-03-26T22:00:01.999584
MEAN_MOTION    = 15.80779409
ECCENTRICITY   = .00010185
INCLINATION    = 97.2843
RA_OF_ASC_NODE = 105.9940
ARG_OF_PERICENTER = 104.2266
MEAN_ANOMALY   = 82.5673

EPHEMERIS_TYPE = 0
CLASSIFICATION_TYPE = U
NORAD_CAT_ID   = 68142
ELEMENT_SET_NO = 999
REV_AT_EPOCH   = 340
BSTAR          = .51727893E-3
MEAN_MOTION_DOT = .99915E-3
MEAN_MOTION_DDOT = 0

